[{"OBJECT_NAME":"STARLINK-31676","OBJECT_ID":"2024-100R","EPOCH":"2026-03-09T05:12:36.074016","MEAN_MOTION":15.27566795,"ECCENTRICITY":0.00012829,"INCLINATION":42.999,"RA_OF_ASC_NODE":128.1434,"ARG_OF_PERICENTER":163.6464,"MEAN_ANOMALY":196.443,"EPHEMERIS_TYPE":0,"CLASSIFICATION_TYPE":"U","NORAD_CAT_ID":59900,"ELEMENT_SET_NO":999,"REV_AT_EPOCH":10097,"BSTAR":2.6887241e-5,"MEAN_MOTION_DOT":4.78e-6,"MEAN_MOTION_DDOT":0},{"OBJECT_NAME":"OBJECT E","OBJECT_ID":"2024-174E","EPOCH":"2026-03-09T23:40:24.424320","MEAN_MOTION":15.26241811,"ECCENTRICITY":0.00122518,"INCLINATION":97.4515,"RA_OF_ASC_NODE":80.1669,"ARG_OF_PERICENTER":217.7524,"MEAN_ANOMALY":142.2856,"EPHEMERIS_TYPE":0,"CLASSIFICATION_TYPE":"U","NORAD_CAT_ID":61242,"ELEMENT_SET_NO":999,"REV_AT_EPOCH":8070,"BSTAR":0.00031155901,"MEAN_MOTION_DOT":8.013e-5,"MEAN_MOTION_DDOT":0}]
